NORAD_CAT_ID,OBJECT_NAME,OBJECT_TYPE,EPOCH,MEAN_MOTION,ECCENTRICITY,INCLINATION,RA_OF_ASC_NODE,ARG_OF_PERICENTER,MEAN_ANOMALY,BSTAR,MEAN_MOTION_DOT,MEAN_MOTION_DDOT,TLE_LINE0,TLE_LINE1,TLE_LINE2,SEMIMAJOR_AXIS,PERIOD,APOGEE,PERIGEE,DECAYED
53400.0,STARLINK-4520,PAYLOAD,2024-03-27 06:09:01,15.08854555,0.0001522,53.2162,82.3528,103.4626,256.6536,0.00067525,0.00010479,0.0,0 STARLINK-4520,1 53400U 22097N   24087.25626305  .00010479  00000-0  67525-3 0  9991,2 53400  53.2162  82.3528 0001522 103.4626 256.6536 15.08854555 90472,6917.836,95.437,540.754,538.648,0.0
53400.0,STARLINK-4520,PAYLOAD,2024-03-27 09:19:47,15.08860513,0.0001543,53.2158,81.7586,101.5036,258.6129,0.00076986,0.00011992,0.0,0 STARLINK-4520,1 53400U 22097N   24087.38874093  .00011992  00000-0  76986-3 0  9996,2 53400  53.2158  81.7586 0001543 101.5036 258.6129 15.08860513 90988,6917.818,95.436,540.75,538.615,0.0
53400.0,STARLINK-4520,PAYLOAD,2024-03-28 05:59:47,15.08858522,0.0001309,53.2158,77.8935,100.0546,260.0594,0.00050274,7.726e-05,0.0,0 STARLINK-4520,1 53400U 22097N   24088.24985595  .00007726  00000-0  50274-3 0  9994,2 53400  53.2158  77.8935 0001309 100.0546 260.0594 15.08858522 90623,6917.824,95.436,540.594,538.783,0.0
53400.0,STARLINK-4520,PAYLOAD,2024-03-28 09:10:33,15.08861115,0.0001308,53.216,77.2986,100.9036,259.2103,0.00061985,9.596e-05,0.0,0 STARLINK-4520,1 53400U 22097N   24088.38233443  .00009596  00000-0  61985-3 0  9995,2 53400  53.2160  77.2986 0001308 100.9036 259.2103 15.08861115 91133,6917.816,95.436,540.586,538.776,0.0
53400.0,STARLINK-4520,PAYLOAD,2024-03-29 04:15:11,15.08839654,0.0001576,53.2168,73.7274,100.2048,259.9122,2.5625e-05,1.2e-06,0.0,0 STARLINK-4520,1 53400U 22097N   24089.17721782  .00000120  00000-0  25625-4 0  9997,2 53400  53.2168  73.7274 0001576 100.2048 259.9122 15.08839654 90764,6917.881,95.438,540.837,538.656,0.0
53400.0,STARLINK-4520,PAYLOAD,2024-03-29 05:50:34,15.08843021,0.000125,53.2158,73.4339,91.4672,268.6464,-8.5912e-07,-3.02e-06,0.0,0 STARLINK-4520,1 53400U 22097N   24089.24345799 -.00000302  00000-0 -85912-6 0  9996,2 53400  53.2158  73.4339 0001250  91.4672 268.6464 15.08843021 91260,6917.871,95.437,540.601,538.871,0.0
53400.0,STARLINK-4520,PAYLOAD,2024-03-29 21:44:26,15.0884086,0.0001258,53.2166,70.4618,94.2818,265.8318,9.4036e-05,1.209e-05,0.0,0 STARLINK-4520,1 53400U 22097N   24089.90585983  .00001209  00000-0  94036-4 0  9990,2 53400  53.2166  70.4618 0001258  94.2818 265.8318 15.08840860 91363,6917.878,95.438,540.613,538.872,0.0
53400.0,STARLINK-4520,PAYLOAD,2024-03-30 08:52:07,15.08850458,0.000129,53.2171,68.3801,93.4006,266.7133,0.00026583,3.946e-05,0.0,0 STARLINK-4520,1 53400U 22097N   24090.36953595  .00003946  00000-0  26583-3 0  9991,2 53400  53.2171  68.3801 0001290  93.4006 266.7133 15.08850458 90947,6917.848,95.437,540.606,538.821,0.0
53400.0,STARLINK-4520,PAYLOAD,2024-03-30 15:13:40,15.088463,0.0001298,53.2173,67.1913,95.8526,264.2615,0.00018524,2.662e-05,0.0,0 STARLINK-4520,1 53400U 22097N   24090.63449607  .00002662  00000-0  18524-3 0  9995,2 53400  53.2173  67.1913 0001298  95.8526 264.2615 15.08846300 91479,6917.861,95.437,540.624,538.828,0.0
53400.0,STARLINK-4520,PAYLOAD,2024-03-31 05:32:09,15.08838254,0.0001396,53.2175,64.5167,101.5513,258.5635,9.1411e-05,1.167e-05,0.0,0 STARLINK-4520,1 53400U 22097N   24091.23066282  .00001167  00000-0  91411-4 0  9992,2 53400  53.2175  64.5167 0001396 101.5513 258.5635 15.08838254 91076,6917.886,95.438,540.716,538.785,0.0
53400.0,STARLINK-4520,PAYLOAD,2024-03-31 07:07:32,15.08841097,0.0001479,53.2178,64.2189,96.8701,263.2459,0.00012936,1.771e-05,0.0,0 STARLINK-4520,1 53400U 22097N   24091.29690175  .00001771  00000-0  12936-3 0  9997,2 53400  53.2178  64.2189 0001479  96.8701 263.2459 15.08841097 91578,6917.877,95.437,540.765,538.719,0.0
53400.0,STARLINK-4520,PAYLOAD,2024-03-31 15:04:28,15.08837357,0.0001407,53.2174,62.7317,88.9964,271.1189,7.2088e-05,8.59e-06,0.0,0 STARLINK-4520,1 53400U 22097N   24091.62810437  .00000859  00000-0  72088-4 0  9990,2 53400  53.2174  62.7317 0001407  88.9964 271.1189 15.08837357 91622,6917.888,95.438,540.727,538.78,0.0
53400.0,STARLINK-4520,PAYLOAD,2024-04-01 03:47:36,15.08775634,0.000165,53.2194,60.3515,82.4879,277.6301,-0.00085355,-0.00013823,0.0,0 STARLINK-4520,1 53400U 22097N   24092.15806112 -.00013823  00000-0 -85355-3 0  9991,2 53400  53.2194  60.3515 0001650  82.4879 277.6301 15.08775634 91213,6918.077,95.442,541.084,538.801,0.0
53400.0,STARLINK-4520,PAYLOAD,2024-04-01 06:58:23,15.08803583,0.0001503,53.2197,59.7566,95.18,264.9364,-0.00025307,-4.309e-05,0.0,0 STARLINK-4520,1 53400U 22097N   24092.29054461 -.00004309  00000-0 -25307-3 0  9998,2 53400  53.2197  59.7566 0001503  95.1800 264.9364 15.08803583 91231,6917.992,95.44,540.896,538.817,0.0
53400.0,STARLINK-4520,PAYLOAD,2024-04-01 14:55:16,15.08840013,0.0001163,53.2211,58.2693,99.2028,260.9095,7.014e-05,8.29e-06,0.0,0 STARLINK-4520,1 53400U 22097N   24092.62171415  .00000829  00000-0  70140-4 0  9991,2 53400  53.2211  58.2693 0001163  99.2028 260.9095 15.08840013 91777,6917.88,95.438,540.55,538.941,0.0
53400.0,STARLINK-4520,PAYLOAD,2024-04-01 21:16:48,15.08836975,0.0001035,53.2192,57.0828,100.5873,259.5236,0.0001439,2.003e-05,0.0,0 STARLINK-4520,1 53400U 22097N   24092.88667549  .00002003  00000-0  14390-3 0  9997,2 53400  53.2192  57.0828 0001035 100.5873 259.5236 15.08836975 91328,6917.89,95.438,540.471,539.039,0.0
53400.0,STARLINK-4520,PAYLOAD,2024-04-02 05:13:43,15.0885397,0.0001308,53.2177,55.5936,91.3578,268.7564,0.00023229,3.412e-05,0.0,0 STARLINK-4520,1 53400U 22097N   24093.21786401  .00003412  00000-0  23229-3 0  9990,2 53400  53.2177  55.5936 0001308  91.3578 268.7564 15.08853970 91371,6917.838,95.437,540.608,538.798,0.0
53400.0,STARLINK-4520,PAYLOAD,2024-04-02 14:46:02,15.08847389,0.0001335,53.2185,53.8094,86.4402,273.6743,0.00016806,2.388e-05,0.0,0 STARLINK-4520,1 53400U 22097N   24093.61530873  .00002388  00000-0  16806-3 0  9998,2 53400  53.2185  53.8094 0001335  86.4402 273.6743 15.08847389 91929,6917.858,95.437,540.646,538.799,0.0
53400.0,STARLINK-4520,PAYLOAD,2024-04-02 21:07:35,15.08834739,0.0001337,53.2197,52.6195,92.1496,267.965,0.00030444,4.56e-05,0.0,0 STARLINK-4520,1 53400U 22097N   24093.88027409  .00004560  00000-0  30444-3 0  9991,2 53400  53.2197  52.6195 0001337  92.1496 267.9650 15.08834739 91478,6917.896,95.438,540.686,538.837,0.0
53400.0,STARLINK-4520,PAYLOAD,2024-04-03 14:36:51,15.08822922,0.0001483,53.2191,49.3488,88.9715,271.1447,0.00028021,4.172e-05,0.0,0 STARLINK-4520,1 53400U 22097N   24094.60892724  .00004172  00000-0  28021-3 0  9999,2 53400  53.2191  49.3488 0001483  88.9715 271.1447 15.08822922 92078,6917.933,95.439,540.824,538.772,0.0
53400.0,STARLINK-4520,PAYLOAD,2024-04-03 20:58:23,15.08838683,0.0001424,53.22,48.1592,91.6609,268.4546,-1.7874e-05,-5.72e-06,0.0,0 STARLINK-4520,1 53400U 22097N   24094.87388309 -.00000572  00000-0 -17874-4 0  9994,2 53400  53.2200  48.1592 0001424  91.6609 268.4546 15.08838683 91620,6917.884,95.438,540.735,538.764,0.0
53400.0,STARLINK-4520,PAYLOAD,2024-04-04 06:30:42,15.08844922,0.0001511,53.2195,46.3752,91.4649,268.6516,-0.0001149,-2.116e-05,0.0,0 STARLINK-4520,1 53400U 22097N   24095.27132072 -.00002116  00000-0 -11490-3 0  9996,2 53400  53.2195  46.3752 0001511  91.4649 268.6516 15.08844922 92173,6917.865,95.437,540.776,538.685,0.0
53400.0,STARLINK-4520,PAYLOAD,2024-04-05 03:10:41,15.08857719,0.0001505,53.2188,42.5105,82.7774,277.3389,0.00017053,2.428e-05,0.0,0 STARLINK-4520,1 53400U 22097N   24096.13242128  .00002428  00000-0  17053-3 0  9991,2 53400  53.2188  42.5105 0001505  82.7774 277.3389 15.08857719 91813,6917.826,95.436,540.732,538.65,0.0
53400.0,STARLINK-4520,PAYLOAD,2024-04-05 06:21:27,15.08862406,0.0001274,53.2183,41.9157,82.9188,277.1949,0.0001924,2.777e-05,0.0,0 STARLINK-4520,1 53400U 22097N   24096.26489690  .00002777  00000-0  19240-3 0  9999,2 53400  53.2183  41.9157 0001274  82.9188 277.1949 15.08862406 92328,6917.812,95.436,540.558,538.796,0.0
53400.0,STARLINK-4520,PAYLOAD,2024-04-05 20:39:56,15.08843656,0.0001545,53.2188,39.2387,81.2034,278.9133,0.00018092,2.593e-05,0.0,0 STARLINK-4520,1 53400U 22097N   24096.86106912  .00002593  00000-0  18092-3 0  9998,2 53400  53.2188  39.2387 0001545  81.2034 278.9133 15.08843656 91926,6917.869,95.437,540.803,538.665,0.0
53400.0,STARLINK-4520,PAYLOAD,2024-04-06 12:33:47,15.08846598,0.000132,53.2173,36.267,85.8975,274.2168,-7.6236e-07,-3e-06,0.0,0 STARLINK-4520,1 53400U 22097N   24097.52346448 -.00000300  00000-0 -76236-6 0  9995,2 53400  53.2173  36.2670 0001320  85.8975 274.2168 15.08846598 92518,6917.86,95.437,540.638,538.812,0.0
53400.0,STARLINK-4520,PAYLOAD,2024-04-06 20:30:43,15.08843687,0.0002057,53.2176,34.7778,77.0103,283.1119,-0.00019537,-3.397e-05,0.0,0 STARLINK-4520,1 53400U 22097N   24097.85466673 -.00003397  00000-0 -19537-3 0  9991,2 53400  53.2176  34.7778 0002057  77.0103 283.1119 15.08843687 92563,6917.869,95.437,541.157,538.311,0.0
53400.0,STARLINK-4520,PAYLOAD,2024-04-07 12:24:34,15.08840588,0.0001393,53.2188,31.806,87.2664,272.8488,-0.00011072,-2.05e-05,0.0,0 STARLINK-4520,1 53400U 22097N   24098.51706796 -.00002050  00000-0 -11072-3 0  9999,2 53400  53.2188  31.8060 0001393  87.2664 272.8488 15.08840588 92667,6917.879,95.438,540.707,538.78,0.0
53400.0,STARLINK-4520,PAYLOAD,2024-04-08 04:18:25,15.08852707,0.0001358,53.2185,28.8325,90.8043,269.3104,0.00052762,8.122e-05,0.0,0 STARLINK-4520,1 53400U 22097N   24099.17946709  .00008122  00000-0  52762-3 0  9997,2 53400  53.2185  28.8325 0001358  90.8043 269.3104 15.08852707 92275,6917.842,95.437,540.646,538.767,0.0
53400.0,STARLINK-4520,PAYLOAD,2024-04-08 12:15:21,15.08846186,0.0001217,53.2177,27.3456,81.1847,278.9283,0.00032509,4.891e-05,0.0,0 STARLINK-4520,1 53400U 22097N   24099.51066885  .00004891  00000-0  32509-3 0  9999,2 53400  53.2177  27.3456 0001217  81.1847 278.9283 15.08846186 92328,6917.861,95.437,540.568,538.885,0.0
